{
  "norad_id": 67329,
  "name": "STARLINK-36496",
  "history": [
    {
      "epoch": "2026-03-28T17:54:58.000032Z",
      "apogee_km": 483.8318116244727,
      "perigee_km": 482.2249266950157,
      "latitude_deg": 2.6348595085302266e-05,
      "longitude_deg": 122.71383689095474,
      "height_km": 482.8423615472847,
      "semi_major_axis_km": 6861.165369159744,
      "eccentricity": 0.0001171,
      "inclination_deg": 43.0034,
      "raan_deg": 217.618,
      "arg_perigee_deg": 267.3523,
      "mean_anomaly_deg": 92.7195,
      "mean_motion_rev_day": 15.27586922
    }
  ]
}