{"fetched_at":"2026-03-30T06:02:59Z","count":15439,"tles":[{"name":"STARLINK-36496","line1":"1 67329U 26002AA  26087.74650463  .00016488  00000+0  60721-3 0  9990","line2":"2 67329  43.0034 217.6180 0001171 267.3523  92.7195 15.27586922 13976","category":"Starlink"}]}